              M50 Cartesian                         M50 Keplerian  
    -----------------------------------       --------------------------------
     X    =        4305718.70                 A    =         6776945.71  meter
     Y    =         577475.83  meter          E    =           .0005074
     Z    =        5197590.21                 I    =           51.29024
     XDOT =      -2288.512723                 Wp   =          111.88919
     YDOT =       7241.925174  meter/sec      RA   =          294.13254  deg
     ZDOT =       1088.492700                 TA   =          327.62018
                                              MA   =          327.65130
                                              Ha   =            220.997  n.mi
                                              Hp   =            213.675
 
              M50 Cartesian                         J2K Cartesian  
    -----------------------------------       --------------------------------
     X    =       14126373.70                 X    =         4273693.38
     Y    =        1894605.74  feet           Y    =          625446.29  meter
     Z    =       17052461.33                 Z    =         5218428.67
     XDOT =      -7508.243842                 XDOT =       -2374.611118
     YDOT =      23759.597027  feet/sec       YDOT =        7215.852121  meter/sec
     ZDOT =       3571.170275                 ZDOT =        1077.166315
 
              TDR Cartesian                         TDR Cartesian  
    -----------------------------------       --------------------------------
     X    =       -4257436.99                 X    =        -1297666.79
     Y    =      -13488057.59  feet           Y    =        -4111159.95  meter
     Z    =       17142839.18                 Z    =         5225137.38
     XDOT =      23720.332742                 XDOT =        7229.957420
     YDOT =      -3001.371912  feet/sec       YDOT =        -914.818159  meter/sec
     ZDOT =       3520.606929                 ZDOT =        1073.080992
  
  
    The mean element set is posted at the UTC for which position is
    just north of the next ascending node relative to the above
    vector time
 
 
    TWO LINE MEAN ELEMENT SET
  
    ISS
    1 25544U 98067A   16121.76396480  .00016717  00000-0  10270-3 0  9113
    2 25544  51.6434 294.5996 0001558  85.0199 275.1132 15.54396272 37601
  
  
    Satellite: ISS
    Catalog Number: 25544
    Epoch time:      16121.76396480   =   yrday.fracday
    Element set:     911
    Inclination:       51.6434  deg
    RA of node:       294.5996  deg
    Eccentricity:     .0001558     
    Arg of perigee:    85.0199  deg
    Mean anomaly:     275.1132  deg
    Mean motion:   15.54396272  rev/day
    Decay rate:    1.67170E-04  rev/day^2
    Epoch rev:            3760
    Checksum:              328
 
 
    Coasting Arc #13 (Orbit 3774)
    ---------------------------------------
 
    Vector Time (GMT): 2016/122/17:08:00.000
    Vector Time (MET): N/A
    Weight (LBS)     : 945238.6
 
              M50 Cartesian                         M50 Keplerian  
    -----------------------------------       --------------------------------
     X    =       -3615053.50                 A    =         6776919.81  meter
     Y    =       -2376356.70  meter          E    =           .0015940
     Z    =       -5230416.63                 I    =           51.27745
     XDOT =       3184.015517                 Wp   =           95.78678
     YDOT =      -6900.548325  meter/sec      RA   =          289.10578  deg
     ZDOT =        935.381221                 TA   =          183.21640
                                              MA   =          183.22666
                                              Ha   =            221.171  n.mi
                                              Hp   =            213.546
 
              M50 Cartesian                         J2K Cartesian  
    -----------------------------------       --------------------------------
     X    =      -11860411.74                 X    =        -3562804.48
     Y    =       -7796445.87  feet           Y    =        -2416490.67  meter
     Z    =      -17160159.56                 Z    =        -5247850.82
     XDOT =      10446.245136                 XDOT =        3256.398811
     YDOT =     -22639.594242  feet/sec       YDOT =       -6864.537794  meter/sec
     ZDOT =       3068.836028                 ZDOT =         951.024545
 
              TDR Cartesian                         TDR Cartesian  
    -----------------------------------       --------------------------------
     X    =       -1807304.27                 X    =         -550866.34
     Y    =       13985674.09  feet           Y    =         4262833.46  meter
     Z    =      -17235416.51                 Z    =        -5253354.95
     XDOT =     -23896.630489                 XDOT =       -7283.692973
     YDOT =        775.599155  feet/sec       YDOT =         236.402622  meter/sec
     ZDOT =       3138.065888                 ZDOT =         956.482483
  
  
    The mean element set is posted at the UTC for which position is
    just north of the next ascending node relative to the above
    vector time
 
 
    TWO LINE MEAN ELEMENT SET
  
    ISS
    1 25544U 98067A   16122.72834603  .00016717  00000-0  10270-3 0  9125
    2 25544  51.6432 289.7913 0001581  82.9436 277.1897 15.54382795 37751
  
  
    Satellite: ISS
    Catalog Number: 25544
    Epoch time:      16122.72834603   =   yrday.fracday
    Element set:     912
    Inclination:       51.6432  deg
    RA of node:       289.7913  deg
    Eccentricity:     .0001581     
    Arg of perigee:    82.9436  deg
    Mean anomaly:     277.1897  deg
    Mean motion:   15.54382795  rev/day
    Decay rate:    1.67170E-04  rev/day^2
    Epoch rev:            3775
    Checksum:              340
 
 
    Coasting Arc #14 (Orbit 3790)
    ---------------------------------------
 
    Vector Time (GMT): 2016/123/17:08:00.000
    Vector Time (MET): N/A
    Weight (LBS)     : 945238.6
 
              M50 Cartesian                         M50 Keplerian  
    -----------------------------------       --------------------------------
     X    =        2820005.22                 A    =         6779293.08  meter
     Y    =        4051633.39  meter          E    =           .0009705
     Z    =        4640599.78                 I    =           51.27615
     XDOT =      -3865.310979                 Wp   =           67.03792
     YDOT =       5978.011888  meter/sec      RA   =          284.08077  deg
     ZDOT =      -2861.918859                 TA   =           51.56774
                                              MA   =           51.48066
                                              Ha   =            221.058  n.mi
                                              Hp   =            213.629
 
              M50 Cartesian                         J2K Cartesian  
    -----------------------------------       --------------------------------
     X    =        9251985.64                 X    =         2751946.98
     Y    =       13292760.47  feet           Y    =         4082788.23  meter
     Z    =       15225064.89                 Z    =         4654133.33
     XDOT =     -12681.466468                 XDOT =       -3917.969201
     YDOT =      19612.899894  feet/sec       YDOT =        5934.492855  meter/sec
     ZDOT =      -9389.497569                 ZDOT =       -2880.823936
 
              TDR Cartesian                         TDR Cartesian  
    -----------------------------------       --------------------------------
     X    =        7641430.35                 X    =         2329107.97
     Y    =      -14217435.36  feet           Y    =        -4333474.30  meter
     Z    =       15283075.41                 Z    =         4658281.39
     XDOT =      22175.193518                 XDOT =        6758.998984
     YDOT =       1705.863803  feet/sec       YDOT =         519.947287  meter/sec
     ZDOT =      -9472.704909                 ZDOT =       -2887.280456
  
  
    The mean element set is posted at the UTC for which position is
    just north of the next ascending node relative to the above
    vector time
 
 
    TWO LINE MEAN ELEMENT SET
  
    ISS
    1 25544U 98067A   16123.75701272  .00016717  00000-0  10270-3 0  9135
    2 25544  51.6433 284.6613 0001617  82.0293 278.1043 15.54409434 37917
  
  
    Satellite: ISS
    Catalog Number: 25544
    Epoch time:      16123.75701272   =   yrday.fracday
    Element set:     913
    Inclination:       51.6433  deg
    RA of node:       284.6613  deg
    Eccentricity:     .0001617     
    Arg of perigee:    82.0293  deg
    Mean anomaly:     278.1043  deg
    Mean motion:   15.54409434  rev/day
    Decay rate:    1.67170E-04  rev/day^2
    Epoch rev:            3791
    Checksum:              296
 
 
    Coasting Arc #15 (Orbit 3805)
    ---------------------------------------
 
    Vector Time (GMT): 2016/124/17:08:00.000
    Vector Time (MET): N/A
    Weight (LBS)     : 945238.6
 
              M50 Cartesian                         M50 Keplerian  
    -----------------------------------       --------------------------------
     X    =       -2010092.68                 A    =         6783177.02  meter
     Y    =       -5428140.85  meter          E    =           .0006838
     Z    =       -3542842.81                 I    =           51.28085
     XDOT =       4326.101444                 Wp   =           94.23146
     YDOT =      -4498.376910  meter/sec      RA   =          279.06591  deg
     ZDOT =       4444.613906                 TA   =          223.77142
                                              MA   =          223.82565
                                              Ha   =            221.149  n.mi
                                              Hp   =            213.591
 
